[{"OBJECT_NAME":"WORLDVIEW-3 (WV-3)","OBJECT_ID":"2014-048A","EPOCH":"2026-03-09T21:50:50.799552","MEAN_MOTION":14.84835527,"ECCENTRICITY":9.96e-6,"INCLINATION":97.8634,"RA_OF_ASC_NODE":145.1004,"ARG_OF_PERICENTER":1.3842,"MEAN_ANOMALY":358.7373,"EPHEMERIS_TYPE":0,"CLASSIFICATION_TYPE":"U","NORAD_CAT_ID":40115,"ELEMENT_SET_NO":999,"REV_AT_EPOCH":62717,"BSTAR":0.00016114754,"MEAN_MOTION_DOT":1.316e-5,"MEAN_MOTION_DDOT":0},{"OBJECT_NAME":"SL-14 R\/B","OBJECT_ID":"1983-122B","EPOCH":"2026-03-09T19:33:20.530944","MEAN_MOTION":14.85861842,"ECCENTRICITY":0.00180897,"INCLINATION":82.5257,"RA_OF_ASC_NODE":329.5422,"ARG_OF_PERICENTER":79.8346,"MEAN_ANOMALY":280.491,"EPHEMERIS_TYPE":0,"CLASSIFICATION_TYPE":"U","NORAD_CAT_ID":14552,"ELEMENT_SET_NO":999,"REV_AT_EPOCH":26085,"BSTAR":6.9629297e-5,"MEAN_MOTION_DOT":6.32e-6,"MEAN_MOTION_DDOT":0}]
